{"spkid": "54267691", "covariance": {"epoch": "2458807.5", "labels": ["e", "q", "tp", "node", "peri", "i"], "data": [["1.250540719143101E-13", "-3.561996696802515E-13", "5.573810032296698E-11", "-3.728749692089696E-12", "2.815620834162582E-11", "-2.493830309549565E-12"], ["-3.561996696802515E-13", "1.014823606590071E-12", "-1.588381842494189E-10", "1.05137202924877E-11", "-8.003171675419207E-11", "7.038575818168006E-12"], ["5.573810032296698E-11", "-1.588381842494189E-10", "3.098047045249535E-8", "-1.37758139131602E-9", "1.361766374708898E-8", "-7.707188227873526E-10"], ["-3.728749692089696E-12", "1.05137202924877E-11", "-1.37758139131602E-9", "3.788683291713814E-9", "-4.292874636552874E-9", "2.110677206258227E-9"], ["2.815620834162582E-11", "-8.003171675419207E-11", "1.361766374708898E-8", "-4.292874636552874E-9", "1.004364297993014E-8", "-2.448188331185504E-9"], ["-2.493830309549565E-12", "7.038575818168006E-12", "-7.707188227873526E-10", "2.110677206258227E-9", "-2.448188331185504E-9", "1.851114141870291E-9"]], "elements": [{"name": "e", "sigma": 3.53629851559947e-07, "title": "eccentricity", "value": ".671172375787063", "units": null, "label": "e"}, {"units": "au", "value": ".9226226188359187", "title": "perihelion distance", "name": "q", "sigma": 1.00738453759727e-06, "label": "q"}, {"label": "tp", "units": "TDB", "title": "time of perihelion passage", "value": "2458144.734096864650", "name": "tp", "sigma": 0.000176012699690947}, {"name": "om", "sigma": 6.15522809627215e-05, "value": "342.9412046902878", "title": "longitude of the ascending node", "units": "deg", "label": "node"}, {"label": "peri", "sigma": 0.000100217977329071, "name": "w", "units": "deg", "value": "328.3421920552573", "title": "argument of perihelion"}, {"label": "i", "name": "i", "sigma": 4.30245760219702e-05, "units": "deg", "title": "inclination", "value": "20.20674412638641"}]}, "elements": [{"label": "e", "name": "e", "sigma": "3.4959E-7", "value": ".6720484550488388", "title": "eccentricity", "units": null}, {"label": "a", "sigma": "5.7983E-8", "name": "a", "title": "semi-major axis", "value": "2.801149527205117", "units": "au"}, {"label": "q", "units": "au", "title": "perihelion distance", "value": ".9186413150861328", "name": "q", "sigma": "9.9087E-7"}, {"label": "i", "name": "i", "sigma": "4.311E-5", "value": "20.25083839674611", "title": "inclination; angle with respect to x-y ecliptic plane", "units": "deg"}, {"label": "node", "units": "deg", "value": "342.876719623467", "title": "longitude of the ascending node", "sigma": "6.1414E-5", "name": "om"}, {"sigma": "9.9934E-5", "name": "w", "title": "argument of perihelion", "value": "328.3972172385372", "units": "deg", "label": "peri"}, {"label": "M", "name": "ma", "sigma": "2.8506E-5", "units": "deg", "title": "mean anomaly", "value": "281.5092182591026"}, {"label": "tp", "units": "TDB", "value": "2461573.852461688787", "title": "time of perihelion passage", "sigma": ".00013674", "name": "tp"}, {"label": "period", "name": "per", "sigma": "5.3169E-5", "value": "1712.390719354128", "title": "sidereal orbital period", "units": "d"}, {"label": "n", "name": "n", "sigma": "6.5276E-9", "value": ".2102323937703792", "title": "mean motion", "units": "deg/d"}, {"label": "Q", "units": "au", "title": "aphelion distance", "value": "4.683657739324101", "sigma": "9.695E-8", "name": "ad"}], "epoch": "2461200.5"}